     2.10           NAVIGATION DATA                         RINEX VERSION / TYPE
SPIDER V4,0,0,3554                      2015 04 16 06:45    PGM / RUN BY / DATE 
   1.5832D-08 -7.4506D-09 -5.9605D-08  5.9605D-08           ION ALPHA           
   1.2288D+05 -6.5536D+04 -1.3107D+05 -6.5536D+04           ION BETA            
    1.862645149231D-09 1.332267629550D-14   233472     1832 DELTA-UTC: A0,A1,T,W
    16                                                      LEAP SECONDS        
                                                            END OF HEADER       
 2 15 02 15 16 00  0.0 5.481387488544D-04 2.273736754432D-12 0.000000000000D+00
    8.900000000000D+01-1.018750000000D+01 4.991993485248D-09 5.689796218394D-01
   -5.774199962616D-07 1.438119879458D-02 1.096166670322D-05 5.153769437790D+03
    5.760000000000D+04-2.160668373108D-07-2.066362672985D-01 2.104789018631D-07
    9.408847625527D-01 1.609062500000D+02-2.320710794828D+00-8.332133205613D-09
    3.846588880752D-10 1.000000000000D+00 1.832000000000D+03 0.000000000000D+00
    2.000000000000D+00 0.000000000000D+00-2.048909664154D-08 8.900000000000D+01
    5.760000000000D+04 0.000000000000D+00
 7 15 02 15 16 00  0.0 4.405048675835D-04 3.183231456205D-12 0.000000000000D+00
    1.070000000000D+02 9.753125000000D+01 4.038382517280D-09-5.909963487530D-01
    4.984438419342D-06 8.003646391444D-03 9.352341294289D-06 5.153742151260D+03
    5.760000000000D+04 1.452863216400D-07 2.988762824848D+00 5.960464477539D-08
    9.715551867961D-01 2.058125000000D+02-2.754215565459D+00-7.934259471654D-09
   -6.643133959594D-11 1.000000000000D+00 1.832000000000D+03 0.000000000000D+00
    2.000000000000D+00 0.000000000000D+00-1.117587089539D-08 1.070000000000D+02
    5.760000000000D+04 0.000000000000D+00
 9 15 02 15 16 00  0.0-8.773896843195D-05-1.136868377216D-11 0.000000000000D+00
    4.700000000000D+01-1.521875000000D+01 4.696624422706D-09 1.811848622585D+00
   -7.785856723785D-07 3.503924235702D-04 9.329989552498D-06 5.153651811600D+03
    5.760000000000D+04-4.470348358154D-08 1.913356201274D+00-2.980232238770D-08
    9.579074996866D-01 1.945312500000D+02 2.203531991484D+00-8.086407987662D-09
   -5.825242510582D-10 1.000000000000D+00 1.832000000000D+03 0.000000000000D+00
    2.000000000000D+00 0.000000000000D+00 4.656612873077D-10 4.700000000000D+01
    5.760000000000D+04 0.000000000000D+00
10 15 02 15 16 00  0.0-1.634708605707D-04-1.705302565824D-12 0.000000000000D+00
    1.270000000000D+02 1.178125000000D+01 5.455941476384D-09-3.010197383512D+00
    4.209578037262D-07 1.456173160113D-02 5.485489964485D-06 5.153655498505D+03
    5.760000000000D+04 8.381903171539D-08 8.788432377484D-01-3.315508365631D-07
    9.413496164757D-01 2.620000000000D+02 9.219880902647D-01-8.321418221158D-09
    1.389343640135D-10 1.000000000000D+00 1.832000000000D+03 0.000000000000D+00
    2.000000000000D+00 0.000000000000D+00-3.259629011154D-09 1.270000000000D+02
    5.760000000000D+04 0.000000000000D+00
13 15 02 15 16 00  0.0-8.848588913679D-05-3.524291969370D-12 0.000000000000D+00
    7.400000000000D+01 1.031250000000D+01 4.305893863688D-09 1.580045357174D-01
    5.550682544708D-07 5.332691012882D-03 1.011230051517D-05 5.153686283112D+03
    5.760000000000D+04-5.587935447693D-09 2.026931073747D+00-2.607703208923D-08
    9.747575217862D-01 1.939062500000D+02 2.061867100858D+00-7.880328389831D-09
   -5.335936692497D-10 1.000000000000D+00 1.832000000000D+03 0.000000000000D+00
    2.000000000000D+00 0.000000000000D+00-1.164153218269D-08 7.400000000000D+01
    5.760000000000D+04 0.000000000000D+00
20 15 02 15 16 00  0.0 2.900362014771D-04 4.092726157978D-12 0.000000000000D+00
    2.500000000000D+01 1.918750000000D+01 5.814170922491D-09-2.880504830120D+00
    8.977949619293D-07 5.823310581036D-03 5.550682544708D-06 5.155761604309D+03
    5.760000000000D+04 1.750886440277D-07 7.994725603040D-01-6.705522537231D-08
    9.263594928312D-01 2.526250000000D+02 1.235595629529D+00-8.623930902729D-09
    2.460816828087D-10 1.000000000000D+00 1.832000000000D+03 0.000000000000D+00
    2.000000000000D+00 0.000000000000D+00-8.381903171539D-09 2.500000000000D+01
    5.760000000000D+04 0.000000000000D+00
28 15 02 15 16 00  0.0 4.197219386697D-04 2.614797267597D-12 0.000000000000D+00
    6.000000000000D+01 2.100000000000D+01 3.929092162736D-09 2.964659216036D+00
    1.059845089912D-06 1.969516417012D-02 1.722946763039D-06 5.153691955566D+03
    5.760000000000D+04 2.514570951462D-07-2.203671624088D+00-1.229345798492D-07
    9.882882032448D-01 3.582812500000D+02-1.671234093974D+00-7.812468005852D-09
    3.500145659419D-11 1.000000000000D+00 1.832000000000D+03 0.000000000000D+00
    2.000000000000D+00 0.000000000000D+00-1.117587089539D-08 6.000000000000D+01
    5.760000000000D+04 0.000000000000D+00
30 15 02 15 16 00  0.0-8.452683687210D-05 1.364242052659D-12 0.000000000000D+00
    5.100000000000D+01 1.009687500000D+02 4.292321609256D-09-4.911643013418D-01
    5.163252353668D-06 1.002781558782D-03 9.128823876381D-06 5.153779922485D+03
    5.760000000000D+04 1.303851604462D-08 3.039485947041D+00-3.725290298462D-08
    9.572619183270D-01 2.028750000000D+02 2.935527459770D+00-8.015334174161D-09
   -2.750114545813D-11 1.000000000000D+00 1.832000000000D+03 0.000000000000D+00
    2.000000000000D+00 0.000000000000D+00 3.259629011154D-09 5.100000000000D+01
    5.760000000000D+04 0.000000000000D+00
15 15 02 15 16 00  0.0-2.324483357370D-04-2.273736754432D-12 0.000000000000D+00
    3.300000000000D+01-5.312500000000D+00 5.362366106709D-09 1.353852230454D+00
    5.587935447693D-09 7.096562883817D-03 9.087845683098D-06 5.153590505600D+03
    5.760000000000D+04 5.029141902924D-08 1.872202257379D+00 1.192092895508D-07
    9.338073609162D-01 1.907500000000D+02 3.744581419589D-01-8.399992701413D-09
   -6.735995095042D-10 1.000000000000D+00 1.832000000000D+03 0.000000000000D+00
    2.000000000000D+00 0.000000000000D+00-1.071020960808D-08 3.300000000000D+01
    5.760000000000D+04 0.000000000000D+00
24 15 02 15 16 00  0.0-4.352536052465D-05-6.821210263297D-13 0.000000000000D+00
    5.900000000000D+01 1.163437500000D+02 4.471614634127D-09 2.446040004870D-01
    5.977228283882D-06 3.068124759011D-03 8.983537554741D-06 5.153692110062D+03
    5.760000000000D+04 9.499490261078D-08 2.949655507734D+00 4.656612873077D-08
    9.547776947119D-01 1.994687500000D+02 2.857701568227D-01-8.129624085029D-09
   -2.607251393949D-11 1.000000000000D+00 1.832000000000D+03 0.000000000000D+00
    2.000000000000D+00 0.000000000000D+00 2.328306436539D-09 5.900000000000D+01
    5.760000000000D+04 0.000000000000D+00
17 15 02 15 16 00  0.0-1.560430973768D-04-2.160049916711D-12 0.000000000000D+00
    5.100000000000D+01-1.169375000000D+02 4.037667977741D-09 2.168263441630D+00
   -6.088986992836D-06 1.008804654703D-02 7.271766662598D-06 5.153724782944D+03
    5.760000000000D+04 3.725290298462D-09-1.180608225483D+00-2.123415470123D-07
    9.712440475273D-01 2.442187500000D+02-2.035145566496D+00-7.878542263029D-09
   -9.928984717744D-11 1.000000000000D+00 1.832000000000D+03 0.000000000000D+00
    2.000000000000D+00 0.000000000000D+00-1.071020960808D-08 5.100000000000D+01
    5.760000000000D+04 0.000000000000D+00
 5 15 02 15 18 00  0.0-2.786708064377D-04 5.115907697473D-12 0.000000000000D+00
    6.300000000000D+01 1.481250000000D+01 5.404153569089D-09-2.318103270626D+00
    5.643814802170D-07 4.042495740578D-03 5.666166543961D-06 5.153764593124D+03
    6.480000000000D+04 6.146728992462D-08 8.630954351835D-01-1.490116119385D-07
    9.465714747642D-01 2.636562500000D+02 4.209467409785D-01-8.468210133117D-09
    2.207234811591D-10 1.000000000000D+00 1.832000000000D+03 0.000000000000D+00
    2.000000000000D+00 0.000000000000D+00-1.071020960808D-08 6.300000000000D+01
    6.480000000000D+04 0.000000000000D+00
13 15 02 15 18 00  0.0-8.851103484631D-05-3.524291969370D-12 0.000000000000D+00
    7.500000000000D+01 5.000000000000D-01 4.274106402136D-09 1.208075178049D+00
   -5.215406417847D-08 5.333866225556D-03 9.866431355476D-06 5.153688646317D+03
    6.480000000000D+04 4.284083843231D-08 2.026874387134D+00-6.891787052155D-08
    9.747539654324D-01 1.967187500000D+02 2.061966958183D+00-7.823897085757D-09
   -5.210931131039D-10 1.000000000000D+00 1.832000000000D+03 0.000000000000D+00
    2.000000000000D+00 0.000000000000D+00-1.164153218269D-08 7.500000000000D+01
    6.480000000000D+04 0.000000000000D+00
15 15 02 15 18 00  0.0-2.324646338820D-04-2.273736754432D-12 0.000000000000D+00
    5.200000000000D+01-1.646875000000D+01 5.309864103964D-09 2.403898248948D+00
   -8.717179298401D-07 7.095875917003D-03 9.097158908844D-06 5.153593330383D+03
    6.480000000000D+04-1.396983861923D-07 1.872141348785D+00 3.725290298462D-09
    9.338035090529D-01 1.922187500000D+02 3.746497944677D-01-8.254272820807D-09
   -5.339508279967D-10 1.000000000000D+00 1.832000000000D+03 0.000000000000D+00
    2.000000000000D+00 0.000000000000D+00-1.071020960808D-08 5.200000000000D+01
    6.480000000000D+04 0.000000000000D+00
17 15 02 15 18 00  0.0-1.560589298606D-04-2.160049916711D-12 0.000000000000D+00
    6.900000000000D+01-1.267187500000D+02 4.045525692220D-09-3.064765507922D+00
   -6.508082151413D-06 1.008928578813D-02 7.029622793198D-06 5.153722623825D+03
    6.480000000000D+04 4.656612873077D-08-1.180664291818D+00-9.872019290924D-08
    9.712435077106D-01 2.486562500000D+02-2.035155801071D+00-7.798181655971D-09
   -1.257195181292D-10 1.000000000000D+00 1.832000000000D+03 0.000000000000D+00
    2.000000000000D+00 0.000000000000D+00-1.071020960808D-08 6.900000000000D+01
    6.480000000000D+04 0.000000000000D+00
